OBJECT_NAME,OBJECT_ID,EPOCH,MEAN_MOTION,ECCENTRICITY,INCLINATION,RA_OF_ASC_NODE,ARG_OF_PERICENTER,MEAN_ANOMALY,EPHEMERIS_TYPE,CLASSIFICATION_TYPE,NORAD_CAT_ID,ELEMENT_SET_NO,REV_AT_EPOCH,BSTAR,MEAN_MOTION_DOT,MEAN_MOTION_DDOT
BADR-5,2010-025A,2026-07-21T14:56:10.352256,1.00277958,.00058037,0.0354,138.4804,56.5354,358.8972,0,U,36592,999,5356,0,.156E-5,0
COMS 1,2010-032A,2026-07-21T11:04:13.539648,0.99166501,.00114842,4.8910,74.9428,15.2111,312.2669,0,U,36744,999,5142,0,-.174E-5,0
ARABSAT-5A,2010-032B,2026-07-21T14:56:10.352256,1.00270395,.00053743,0.1258,69.0319,56.9212,67.9540,0,U,36745,999,5899,0,.155E-5,0
ECHOSTAR 15,2010-034A,2026-07-21T14:13:36.931584,1.00273947,.00020038,0.0288,290.4096,175.2917,288.2636,0,U,36792,999,5866,0,.1E-7,0
BEIDOU-2 IGSO-1,2010-036A,2026-07-19T14:08:33.404064,1.00262639,.00586524,54.3073,162.6674,225.1805,228.5775,0,U,36828,999,5842,0,-.97E-6,0
NILESAT 201,2010-037A,2026-07-21T14:45:33.869376,1.00271230,.00050822,0.0344,202.7524,291.7917,19.2136,0,U,36830,999,5872,0,-.56E-6,0
RASCOM-QAF 1R,2010-037B,2026-07-21T14:48:18.605664,1.00271913,.00060787,0.0186,82.4069,28.4510,53.4843,0,U,36831,999,5865,0,.2E-6,0
AEHF-1 (USA 214),2010-039A,2026-07-21T06:22:48.633024,1.00278380,.0003982,8.3029,67.6027,37.7187,319.4653,0,U,36868,999,5399,0,.143E-5,0
XM-5,2010-053A,2026-07-21T06:08:38.557248,1.00271974,.00011673,0.0639,265.0101,315.7230,55.2492,0,U,37185,999,5782,0,-.22E-6,0
BSAT-3B,2010-056B,2026-07-21T15:15:28.579680,1.00271032,.00028696,0.0606,239.5903,297.1145,101.3938,0,U,37207,999,5244,0,-.348E-5,0
BEIDOU-2 G4,2010-057A,2026-07-21T13:50:24.156672,1.00272931,.00052996,3.7306,68.7343,184.8109,53.3330,0,U,37210,999,5763,0,-.114E-5,0
SKYTERRA 1,2010-061A,2026-07-21T14:18:36.453600,1.00272207,.00026594,5.1964,50.7968,30.2899,331.5822,0,U,37218,999,5754,0,-.12E-5,0
HYLAS 1,2010-065A,2026-07-21T04:43:08.817312,1.00644712,.00011678,5.7274,72.5979,135.8360,201.6930,0,U,37237,999,722,0,.111E-5,0
INTELSAT 17 (IS-17),2010-065B,2026-07-21T15:06:21.132864,1.00272998,.0002578,0.0137,99.3462,35.0685,97.5654,0,U,37238,999,5359,0,0,0
BEIDOU-2 IGSO-2,2010-068A,2026-07-19T20:07:19.149312,1.00272665,.00570323,47.4862,271.4234,214.1385,222.1771,0,U,37256,999,5712,0,-.205E-5,0
EUTELSAT KA-SAT 9A,2010-069A,2026-07-21T14:50:03.439104,1.00275409,.00046939,0.0695,336.7244,175.2999,18.8686,0,U,37258,999,4435,0,.64E-6,0
HISPASAT 30W-5,2010-070A,2026-07-21T07:48:20.036160,1.00275276,.00056919,0.0293,184.2974,308.6525,253.1986,0,U,37264,999,5352,0,-.215E-5,0
KOREASAT 6,2010-070B,2026-07-21T13:50:24.156672,1.00272954,.00028655,0.0342,236.5119,251.7205,178.5923,0,U,37265,999,5711,0,-.109E-5,0
BEIDOU-2 IGSO-3,2011-013A,2026-07-21T11:51:52.944192,1.00259347,.00358813,62.4558,39.8259,183.5212,359.9880,0,U,37384,999,5600,0,-.172E-5,0
INTELSAT 28 (IS-28),2011-016A,2026-07-21T09:30:29.660832,1.00271432,.00039567,1.8924,82.2089,42.7581,285.1026,0,U,37392,999,5362,0,-.225E-5,0
YAHSAT 1A,2011-016B,2026-07-21T15:02:29.003712,1.00271826,.00032574,0.0179,73.6478,41.3495,102.4997,0,U,37393,999,4275,0,.103E-5,0
SBIRS GEO-1 (USA 230),2011-019A,2026-07-21T15:02:14.028000,1.00272165,.00018346,4.6100,53.0890,63.6864,99.9705,0,U,37481,999,5574,0,.98E-6,0
TELSTAR 14R,2011-021A,2026-07-21T14:20:58.725888,0.98982153,.00080123,0.0997,85.0198,294.1548,42.2541,0,U,37602,999,5617,0,-.4E-7,0
GSAT-8,2011-022A,2026-07-21T15:03:13.932576,1.00271655,.00025056,2.2178,81.4058,151.4207,347.4399,0,U,37605,999,5356,0,.85E-6,0
ST-2,2011-022B,2026-07-21T15:07:37.805952,1.00265469,.0001731,0.0128,44.6292,94.2333,115.4472,0,U,37606,999,5562,0,0,0
ZHONGXING-10,2011-026A,2026-07-21T15:26:57.053760,1.00273506,.0003628,1.1338,83.8113,22.8253,150.0143,0,U,37677,999,5534,0,-.188E-5,0
SES-3,2011-035A,2026-07-21T14:18:06.502176,1.00272035,.00022287,1.4132,82.7109,37.0933,291.0860,0,U,37748,999,5493,0,-.101E-5,0
KAZSAT-2,2011-035B,2026-07-21T08:21:24.365088,1.00272788,.00021804,0.0275,112.0795,57.5100,341.3902,0,U,37749,999,5374,0,-.197E-5,0
BEIDOU-2 IGSO-4,2011-038A,2026-07-21T08:24:46.541952,1.00278546,.01601254,54.6049,165.3688,231.4898,122.8667,0,U,37763,999,5498,0,-.25E-6,0
ASTRA 1N,2011-041A,2026-07-21T14:52:55.662816,1.00273206,.0006035,0.0657,22.7119,94.2505,64.8221,0,U,37775,999,4487,0,.122E-5,0
BSAT-3C (JCSAT-110R),2011-041B,2026-07-21T15:15:41.162976,1.00271325,.00003304,0.0246,327.1283,208.9181,102.2193,0,U,37776,999,5081,0,-.349E-5,0
PAKSAT-1R,2011-042A,2026-07-21T13:15:37.251936,1.00272509,.00032249,0.7758,84.2797,355.7767,96.1103,0,U,37779,999,5482,0,.155E-5,0
