BADR-5                  
1 36592U 10025A   26202.62234204  .00000156  00000+0  00000+0 0  9998
2 36592   0.0354 138.4804 0005803  56.5354 358.8972  1.00277958 53561
COMS 1                  
1 36744U 10032A   26202.46126782 -.00000174  00000+0  00000+0 0  9999
2 36744   4.8910  74.9428 0011484  15.2111 312.2669  0.99166501 51429
ARABSAT-5A              
1 36745U 10032B   26202.62234204  .00000155  00000+0  00000+0 0  9995
2 36745   0.1258  69.0319 0005374  56.9212  67.9540  1.00270395 58994
ECHOSTAR 15             
1 36792U 10034A   26202.59278856  .00000001  00000+0  00000+0 0  9996
2 36792   0.0288 290.4096 0002003 175.2917 288.2636  1.00273947 58667
BEIDOU-2 IGSO-1         
1 36828U 10036A   26200.58927551 -.00000097  00000+0  00000+0 0  9994
2 36828  54.3073 162.6674 0058652 225.1805 228.5775  1.00262639 58426
NILESAT 201             
1 36830U 10037A   26202.61497534 -.00000056  00000+0  00000+0 0  9992
2 36830   0.0344 202.7524 0005082 291.7917  19.2136  1.00271230 58726
RASCOM-QAF 1R           
1 36831U 10037B   26202.61688201  .00000020  00000+0  00000+0 0  9996
2 36831   0.0186  82.4069 0006078  28.4510  53.4843  1.00271913 58653
AEHF-1 (USA 214)        
1 36868U 10039A   26202.26584066  .00000143  00000+0  00000+0 0  9999
2 36868   8.3029  67.6027 0003982  37.7187 319.4653  1.00278380 53994
XM-5                    
1 37185U 10053A   26202.25600182 -.00000022  00000+0  00000+0 0  9992
2 37185   0.0639 265.0101 0001167 315.7230  55.2492  1.00271974 57825
BSAT-3B                 
1 37207U 10056B   26202.63574745 -.00000348  00000+0  00000+0 0  9998
2 37207   0.0606 239.5903 0002869 297.1145 101.3938  1.00271032 52444
BEIDOU-2 G4             
1 37210U 10057A   26202.57666848 -.00000114  00000+0  00000+0 0  9993
2 37210   3.7306  68.7343 0005299 184.8109  53.3330  1.00272931 57634
SKYTERRA 1              
1 37218U 10061A   26202.59625525 -.00000120  00000+0  00000+0 0  9992
2 37218   5.1964  50.7968 0002659  30.2899 331.5822  1.00272207 57542
HYLAS 1                 
1 37237U 10065A   26202.19662983  .00000111  00000+0  00000+0 0  9991
2 37237   5.7274  72.5979 0001167 135.8360 201.6930  1.00644712  7226
INTELSAT 17 (IS-17)     
1 37238U 10065B   26202.62941126  .00000000  00000+0  00000+0 0  9996
2 37238   0.0137  99.3462 0002578  35.0685  97.5654  1.00272998 53594
BEIDOU-2 IGSO-2         
1 37256U 10068A   26200.83841608 -.00000205  00000+0  00000+0 0  9992
2 37256  47.4862 271.4234 0057032 214.1385 222.1771  1.00272665 57126
EUTELSAT KA-SAT 9A      
1 37258U 10069A   26202.61809536  .00000064  00000+0  00000+0 0  9999
2 37258   0.0695 336.7244 0004693 175.2999  18.8686  1.00275409 44351
HISPASAT 30W-5          
1 37264U 10070A   26202.32523190 -.00000215  00000+0  00000+0 0  9994
2 37264   0.0293 184.2974 0005691 308.6525 253.1986  1.00275276 53522
KOREASAT 6              
1 37265U 10070B   26202.57666848 -.00000109  00000+0  00000+0 0  9992
2 37265   0.0342 236.5119 0002865 251.7205 178.5923  1.00272954 57113
BEIDOU-2 IGSO-3         
1 37384U 11013A   26202.49436278 -.00000172  00000+0  00000+0 0  9995
2 37384  62.4558  39.8259 0035881 183.5212 359.9880  1.00259347 56004
INTELSAT 28 (IS-28)     
1 37392U 11016A   26202.39617663 -.00000225  00000+0  00000+0 0  9994
2 37392   1.8924  82.2089 0003956  42.7581 285.1026  1.00271432 53629
YAHSAT 1A               
1 37393U 11016B   26202.62672458  .00000103  00000+0  00000+0 0  9998
2 37393   0.0179  73.6478 0003257  41.3495 102.4997  1.00271826 42759
SBIRS GEO-1 (USA 230)   
1 37481U 11019A   26202.62655125  .00000098  00000+0  00000+0 0  9994
2 37481   4.6100  53.0890 0001834  63.6864  99.9705  1.00272165 55744
TELSTAR 14R             
1 37602U 11021A   26202.59790192 -.00000004  00000+0  00000+0 0  9990
2 37602   0.0997  85.0198 0008012 294.1548  42.2541  0.98982153 56172
GSAT-8                  
1 37605U 11022A   26202.62724459  .00000085  00000+0  00000+0 0  9999
2 37605   2.2178  81.4058 0002505 151.4207 347.4399  1.00271655 53566
ST-2                    
1 37606U 11022B   26202.63029868  .00000000  00000+0  00000+0 0  9990
2 37606   0.0128  44.6292 0001731  94.2333 115.4472  1.00265469 55623
ZHONGXING-10            
1 37677U 11026A   26202.64371590 -.00000188  00000+0  00000+0 0  9993
2 37677   1.1338  83.8113 0003628  22.8253 150.0143  1.00273506 55348
SES-3                   
1 37748U 11035A   26202.59590859 -.00000101  00000+0  00000+0 0  9992
2 37748   1.4132  82.7109 0002228  37.0933 291.0860  1.00272035 54935
KAZSAT-2                
1 37749U 11035B   26202.34819867 -.00000197  00000+0  00000+0 0  9994
2 37749   0.0275 112.0795 0002180  57.5100 341.3902  1.00272788 53746
BEIDOU-2 IGSO-4         
1 37763U 11038A   26202.35053868 -.00000025  00000+0  00000+0 0  9995
2 37763  54.6049 165.3688 0160125 231.4898 122.8667  1.00278546 54984
ASTRA 1N                
1 37775U 11041A   26202.62008869  .00000122  00000+0  00000+0 0  9990
2 37775   0.0657  22.7119 0006035  94.2505  64.8221  1.00273206 44877
BSAT-3C (JCSAT-110R)    
1 37776U 11041B   26202.63589309 -.00000349  00000+0  00000+0 0  9997
2 37776   0.0246 327.1283 0000330 208.9181 102.2193  1.00271325 50818
PAKSAT-1R               
1 37779U 11042A   26202.55251449  .00000155  00000+0  00000+0 0  9997
2 37779   0.7758  84.2797 0003224 355.7767  96.1103  1.00272509 54825
